ONEWEB-0620             
1 55161U 23004X   25174.46709585  .00000342  00000+0  93006-3 0  9999
2 55161  87.8841  92.5973 0002236  68.3712 291.7653 13.11415116118817
ONEWEB-0621             
1 55162U 23004Y   25174.49422036 -.00000471  00000+0 -13640-2 0  9996
2 55162  87.8840  92.5486 0001689  74.5891 285.5424 13.11416777118792
ONEWEB-0622             
1 55163U 23004Z   25173.20226256 -.00000210  00000+0 -62788-3 0  9990
2 55163  87.8842  92.8292 0002061  55.7041 304.4282 13.11418709118617
ONEWEB-0623             
1 55164U 23004AA  25174.44755382  .00000093  00000+0  20652-3 0  9996
2 55164  87.9070  77.3152 0001525  54.9787 305.1487 13.17651533120345
ONEWEB-0624             
1 55165U 23004AB  25174.40239184 -.00000239  00000+0 -69441-3 0  9993
2 55165  87.8887  62.0156 0001782  76.8165 283.3163 13.12940254120999
ONEWEB-0626             
1 55167U 23004AD  25174.65511099  .00000011  00000+0 -58026-5 0  9996
2 55167  87.9069  77.2695 0002498  77.4788 282.6623 13.17651392120364
ONEWEB-0627             
1 55168U 23004AE  25174.18769044  .00000117  00000+0  26869-3 0  9994
2 55168  87.9067  77.3657 0001758  60.0683 300.0623 13.17648993120304
